STARLINK-31906          
1 59842U 24097H   26067.95873526 -.00001064  00000+0 -29136-4 0  9993
2 59842  43.0029 278.6119 0001999 291.8309  68.2330 15.27568151101805
LUR-1                   
1 60506U 24149AQ  26068.79566301  .00009121  00000+0  32985-3 0  9998
2 60506  97.3790 148.4255 0002777 309.1571  50.9421 15.28658648 86785
